DMSP 5D-3 F16 (USA 172) 
1 28054U 03048A   26182.17449258  .00000006  00000+0  26873-4 0  9998
2 28054  98.9886 206.0951 0008172 105.4989 336.2960 14.14484227171461
METEOSAT-9 (MSG-2)      
1 28912U 05049B   26181.73820331  .00000127  00000+0  00000+0 0  9993
2 28912   9.3903  54.0333 0001827   1.4312 174.9175  1.00279300  7132
DMSP 5D-3 F17 (USA 191) 
1 29522U 06050A   26182.17052365  .00000024  00000+0  34694-4 0  9994
2 29522  98.7380 188.4544 0010569  22.4788 337.6846 14.14994813 14403
FENGYUN 3A              
1 32958U 08026A   26182.07354473  .00000070  00000+0  53817-4 0  9999
2 32958  98.6885 122.6471 0009885  87.9761 272.2548 14.19573898937378
GOES 14                 
1 35491U 09033A   26182.04419734 -.00000326  00000+0  00000+0 0  9998
2 35491   1.7240  82.8862 0002268  23.9850 321.8521  1.00106333  6721
DMSP 5D-3 F18 (USA 210) 
1 35951U 09057A   26182.21352366  .00000274  00000+0  16492-3 0  9998
2 35951  98.9044 162.9525 0010409 205.9359 154.1293 14.14904725861575
EWS-G2 (GOES 15)        
1 36411U 10008A   26182.16936897  .00000030  00000+0  00000+0 0  9993
2 36411   1.3142  82.6579 0005399  44.9881 276.0475  1.00268294 59776
COMS 1                  
1 36744U 10032A   26181.94659670 -.00000048  00000+0  00000+0 0  9995
2 36744   4.8386  75.1955 0011860  13.5621 189.6530  0.99168514 51226
FENGYUN 3B              
1 37214U 10059A   26182.16755722 -.00000290  00000+0 -12670-3 0  9997
2 37214  98.9615 228.2409 0022660 144.7195 291.3646 14.14843477809406
SUOMI NPP               
1 37849U 11061A   26182.15579959  .00000074  00000+0  56203-4 0  9999
2 37849  98.7955 122.9365 0000760 319.2961  40.8158 14.19520173760426
METEOSAT-10 (MSG-3)     
1 38552U 12035B   26182.01423472  .00000001  00000+0  00000+0 0  9995
2 38552   4.7026  60.9544 0001674  14.0096 209.3719  1.00269335 50993
METOP-B                 
1 38771U 12049A   26182.19742684  .00000129  00000+0  78937-4 0  9991
2 38771  98.6497 233.4167 0001382 334.1781  25.9327 14.21443226715255
INSAT-3D                
1 39216U 13038B   26181.99211399 -.00000330  00000+0  00000+0 0  9992
2 39216   1.9600  82.3796 0001125  11.1834 312.1573  1.00269768 47216
FENGYUN 3C              
1 39260U 13052A   26182.17849644  .00000077  00000+0  60321-4 0  9992
2 39260  98.4987 155.4113 0014414 348.0659  12.0172 14.15758120660544
METEOR-M 2              
1 40069U 14037A   26182.22359027  .00000093  00000+0  61649-4 0  9994
2 40069  98.5116 157.4653 0006069   8.4683 351.6596 14.21465158621317
HIMAWARI-8              
1 40267U 14060A   26182.17961112 -.00000265  00000+0  00000+0 0  9999
2 40267   0.0183  13.2350 0001097  89.0011  22.3366  1.00272609 42907
FENGYUN 2G              
1 40367U 14090A   26181.60626499 -.00000295  00000+0  00000+0 0  9999
2 40367   5.6718  72.6578 0003613 150.2358  13.6327  1.00267570 42131
METEOSAT-11 (MSG-4)     
1 40732U 15034A   26182.15862226  .00000070  00000+0  00000+0 0  9995
2 40732   3.2355  71.0232 0002233 348.1971 286.4460  1.00267453  7357
ELEKTRO-L 2             
1 41105U 15074A   26181.12866027 -.00000112  00000+0  00000+0 0  9991
2 41105   6.7257  70.3668 0000706 276.5342 323.0657  1.00271247 38632
SENTINEL-3A             
1 41335U 16011A   26182.17241663  .00000128  00000+0  71120-4 0  9999
2 41335  98.6244 249.3549 0001429  95.2551 264.8793 14.26736520540059
INSAT-3DR               
1 41752U 16054A   26182.10015765 -.00000067  00000+0  00000+0 0  9991
2 41752   0.1393  85.9865 0010057 186.5089 116.6999  1.00272393 35958
HIMAWARI-9              
1 41836U 16064A   26182.17961112 -.00000265  00000+0  00000+0 0  9998
2 41836   0.0345 265.6813 0001355 213.6321   5.3269  1.00268966 35358
GOES 16                 
1 41866U 16071A   26182.18169632 -.00000081  00000+0  00000+0 0  9993
2 41866   0.3742  85.5173 0000590  24.6634 129.7792  1.00272074 35245
FENGYUN 4A              
1 41882U 16077A   26182.04405846 -.00000348  00000+0  00000+0 0  9998
2 41882   2.3565  80.1379 0007934 158.0505 180.4835  1.00276946 35069
CYGFM05                 
1 41884U 16078A   26182.15739756  .00029282  00000+0  38739-3 0  9994
2 41884  34.9550 168.0383 0008193 273.4337  86.5450 15.57256264530933
CYGFM04                 
1 41885U 16078B   26182.14778487  .00036580  00000+0  39889-3 0  9994
2 41885  34.9314 135.0788 0006787 308.6384  51.3733 15.62282833531184
CYGFM02                 
1 41886U 16078C   26182.12119439  .00044681  00000+0  42985-3 0  9991
2 41886  34.9395 129.3756 0007702 311.1471  48.8590 15.65407488531358
CYGFM01                 
1 41887U 16078D   26182.07585036  .00031162  00000+0  40150-3 0  9998
2 41887  34.9380 169.5219 0008014 267.4437  92.5370 15.57950820530877
CYGFM08                 
1 41888U 16078E   26182.20305147  .00036108  00000+0  41794-3 0  9997
2 41888  34.9418 147.8814 0008853 297.6532  62.3295 15.60729471531166
CYGFM07                 
1 41890U 16078G   26182.16132078  .00036376  00000+0  41965-3 0  9993
2 41890  34.9437 136.4884 0007182 309.1735  50.8352 15.60831113531184
CYGFM03                 
1 41891U 16078H   26182.13239707  .00036066  00000+0  41630-3 0  9993
2 41891  34.9391 138.6148 0007072 296.6191  63.3810 15.60819092531152
